[{"OBJECT_NAME":"SORCE","OBJECT_ID":"2003-004A","EPOCH":"2026-03-09T10:24:05.899968","MEAN_MOTION":15.03094555,"ECCENTRICITY":0.00159303,"INCLINATION":39.9899,"RA_OF_ASC_NODE":110.5611,"ARG_OF_PERICENTER":53.0009,"MEAN_ANOMALY":307.2241,"EPHEMERIS_TYPE":0,"CLASSIFICATION_TYPE":"U","NORAD_CAT_ID":27651,"ELEMENT_SET_NO":999,"REV_AT_EPOCH":25688,"BSTAR":0.00029572763,"MEAN_MOTION_DOT":3.92e-5,"MEAN_MOTION_DDOT":0},{"OBJECT_NAME":"STARLINK-34631","OBJECT_ID":"2025-152P","EPOCH":"2026-03-09T14:25:45.084000","MEAN_MOTION":15.05649076,"ECCENTRICITY":0.0002118,"INCLINATION":97.6024,"RA_OF_ASC_NODE":285.4132,"ARG_OF_PERICENTER":84.8452,"MEAN_ANOMALY":275.3017,"EPHEMERIS_TYPE":0,"CLASSIFICATION_TYPE":"U","NORAD_CAT_ID":64855,"ELEMENT_SET_NO":999,"REV_AT_EPOCH":3540,"BSTAR":0.00021908,"MEAN_MOTION_DOT":3.102e-5,"MEAN_MOTION_DDOT":0}]
